<?xml version='1.0' encoding='UTF-8'?>
<!-- One-way roads: three lanes centred on the line, and one lane wholly left of its line -->
<osm version='0.6' generator='hand'>
  <node id='1' version='1' lat='0.000000000' lon='0.000000000'/>
  <node id='2' version='1' lat='0.000000000' lon='0.000898315'/>
  <node id='3' version='1' lat='0.000449158' lon='0.000000000'/>
  <node id='4' version='1' lat='0.000449158' lon='0.000898315'/>
  <way id='1' version='1'>
    <nd ref='1'/>
    <nd ref='2'/>
    <tag k="highway" v="primary"/>
    <tag k="oneway" v="yes"/>
    <tag k="lanes" v="3"/>
    <tag k="width" v="16.5"/>
    <tag k="change:lanes" v="yes|not_right|yes"/>
  </way>
  <way id='2' version='1'>
    <nd ref='3'/>
    <nd ref='4'/>
    <tag k="highway" v="residential"/>
    <tag k="oneway" v="yes"/>
    <tag k="lanes" v="1"/>
    <tag k="width" v="5.5"/>
    <tag k="placement" v="right_of:1"/>
  </way>
</osm>
