<?xml version='1.0' encoding='UTF-8'?>
<!-- A left turn bay opening in the middle of a two-way road before a junction: the approach way splits where the bay starts, its forward lanes are left|through, the line stays the centre line; a connectivity relation takes the bay into the road on the left, and a restriction bans the right turn -->
<osm version='0.6' generator='hand'>
  <node id='1' version='1' lat='0.000000000' lon='-0.000898315'/>
  <node id='2' version='1' lat='0.000000000' lon='-0.000359326'/>
  <node id='3' version='1' lat='0.000000000' lon='0.000000000'/>
  <node id='4' version='1' lat='0.000000000' lon='0.000898315'/>
  <node id='5' version='1' lat='0.000898315' lon='0.000000000'/>
  <node id='6' version='1' lat='-0.000898315' lon='0.000000000'/>
  <way id='1' version='1'>
    <nd ref='1'/>
    <nd ref='2'/>
    <tag k="highway" v="secondary"/>
    <tag k="lanes" v="2"/>
    <tag k="width" v="7"/>
  </way>
  <way id='2' version='1'>
    <nd ref='2'/>
    <nd ref='3'/>
    <tag k="highway" v="secondary"/>
    <tag k="lanes" v="3"/>
    <tag k="lanes:forward" v="2"/>
    <tag k="lanes:backward" v="1"/>
    <tag k="width" v="10.5"/>
    <tag k="turn:lanes:forward" v="left|through"/>
    <tag k="placement:forward" v="left_of:1"/>
    <tag k="change:lanes:forward" v="no|no"/>
  </way>
  <way id='3' version='1'>
    <nd ref='3'/>
    <nd ref='4'/>
    <tag k="highway" v="secondary"/>
    <tag k="lanes" v="2"/>
    <tag k="width" v="7"/>
  </way>
  <way id='4' version='1'>
    <nd ref='3'/>
    <nd ref='5'/>
    <tag k="highway" v="residential"/>
    <tag k="lanes" v="2"/>
    <tag k="width" v="6.5"/>
  </way>
  <way id='5' version='1'>
    <nd ref='3'/>
    <nd ref='6'/>
    <tag k="highway" v="residential"/>
    <tag k="lanes" v="2"/>
    <tag k="width" v="6.5"/>
  </way>
  <relation id='1' version='1'>
    <member type='way' ref='2' role='from'/>
    <member type='node' ref='3' role='via'/>
    <member type='way' ref='4' role='to'/>
    <tag k="type" v="connectivity"/>
    <tag k="connectivity" v="1:1"/>
  </relation>
  <relation id='2' version='1'>
    <member type='way' ref='2' role='from'/>
    <member type='node' ref='3' role='via'/>
    <member type='way' ref='5' role='to'/>
    <tag k="type" v="restriction"/>
    <tag k="restriction" v="no_right_turn"/>
  </relation>
</osm>
